0 SJ-9A
1 38860U 12056A   13282.46032520  .00000568  00000-0  84631-4 0  1253
2 38860 097.9589 357.4198 0023054 257.0393 102.8248 14.78517438 53252
0 SJ-9A
1 38860U 12056A   13282.79870736  .00000569  00000-0  84871-4 0  1266
2 38860 097.9589 357.7545 0023057 255.9303 103.9345 14.78517864 53301
0 SJ-9A
1 38860U 12056A   13283.20476608  .00000552  00000-0  82559-4 0  1277
2 38860 097.9590 358.1560 0023082 254.5160 105.3515 14.78518273 53365
0 SJ-9A
1 38860U 12056A   13283.34011868  .00000552  00000-0  82446-4 0  1281
2 38860 097.9589 358.2898 0023088 254.0783 105.7887 14.78518454 53389
0 SJ-9A
1 38860U 12056A   13283.61082412  .00000556  00000-0  83074-4 0  1286
2 38860 097.9591 358.5578 0023095 253.1430 106.7253 14.78518859 53429
0 SJ-9A
1 38860U 12056A   13283.81385321  .00000553  00000-0  82594-4 0  1297
2 38860 097.9591 358.7585 0023102 252.4600 107.4082 14.78519053 53457
0 SJ-9A
1 38860U 12056A   13284.15223492  .00000571  00000-0  85113-4 0  1307
2 38860 097.9592 359.0937 0023085 250.9561 108.9167 14.78519727 53506
0 SJ-9A
1 38860U 12056A   13284.49061640  .00000566  00000-0  84435-4 0  1310
2 38860 097.9592 359.4281 0023091 249.8404 110.0327 14.78520135 53554
0 SJ-9A
1 38860U 12056A   13285.50576038  .00000627  00000-0  92774-4 0  1341
2 38860 097.9590 000.4318 0023098 246.6418 113.2370 14.78522077 53700
0 SJ-9A
1 38860U 12056A   13285.84414131  .00000671  00000-0  98776-4 0  1351
2 38860 097.9592 000.7665 0023072 245.5559 114.3248 14.78522915 53758
0 SJ-9A
1 38860U 12056A   13286.18252220  .00000715  00000-0  10477-3 0  1369
2 38860 097.9589 001.1011 0023153 244.3964 115.4889 14.78523877 53808
0 SJ-9A
1 38860U 12056A   13286.52090224  .00000747  00000-0  10908-3 0  1376
2 38860 097.9589 001.4358 0023131 243.2598 116.6251 14.78524703 53852
0 SJ-9A
1 38860U 12056A   13286.79160659  .00000780  00000-0  11362-3 0  1388
2 38860 097.9588 001.7036 0023135 242.4142 117.4723 14.78525411 53891
0 SJ-9A
1 38860U 12056A   13287.19766342  .00000791  00000-0  11499-3 0  1398
2 38860 097.9587 002.1050 0023165 240.9802 118.9104 14.78526178 53957
0 SJ-9A
1 38860U 12056A   13287.46836753  .00000791  00000-0  11500-3 0  1407
2 38860 097.9587 002.3728 0023169 240.0728 119.8186 14.78526638 53998
0 SJ-9A
1 38860U 12056A   13287.80674775  .00000806  00000-0  11707-3 0  1416
2 38860 097.9588 002.7074 0023173 238.9311 120.9627 14.78527327 54042
0 SJ-9A
1 38860U 12056A   13288.21280443  .00000783  00000-0  11391-3 0  1421
2 38860 097.9587 003.1088 0023187 237.5538 122.3436 14.78527780 54106
0 SJ-9A
1 38860U 12056A   13288.48350886  .00000748  00000-0  10921-3 0  1439
2 38860 097.9586 003.3763 0023193 236.6430 123.2546 14.78527827 54143
0 SJ-9A
1 38860U 12056A   13288.82188943  .00000739  00000-0  10791-3 0  1446
2 38860 097.9586 003.7107 0023220 235.5595 124.3415 14.78528222 54192
0 SJ-9A
1 38860U 12056A   13289.16027074  .00000638  00000-0  94181-4 0  1456
2 38860 097.9586 004.0454 0023220 234.4033 125.4965 14.78527572 54241
0 SJ-9A
1 38860U 12056A   13289.49865221  .00000608  00000-0  90149-4 0  1464
2 38860 097.9585 004.3799 0023250 233.2094 126.6985 14.78527769 54290
0 SJ-9A
1 38860U 12056A   13289.83703211  .00000625  00000-0  92424-4 0  1470
2 38860 097.9586 004.7145 0023249 231.9662 127.9449 14.78528395 54345
0 SJ-9A
1 38860U 12056A   13290.17541175  .00000647  00000-0  95428-4 0  1480
2 38860 097.9585 005.0489 0023288 230.7462 129.1705 14.78529223 54392
0 SJ-9A
1 38860U 12056A   13290.31076331  .00000662  00000-0  97520-4 0  1496
2 38860 097.9585 005.1828 0023302 230.3230 129.5948 14.78529616 54418
0 SJ-9A
1 38860U 12056A   13290.64914230  .00000690  00000-0  10122-3 0  1506
2 38860 097.9586 005.5177 0023297 229.0938 130.8265 14.78530432 54463
0 SJ-9A
1 38860U 12056A   13290.85216995  .00000703  00000-0  10306-3 0  1512
2 38860 097.9589 005.7186 0023311 228.3892 131.5337 14.78530878 54491
0 SJ-9A
1 38860U 12056A   13291.19054857  .00000768  00000-0  11193-3 0  1524
2 38860 097.9587 006.0532 0023372 227.2479 132.6815 14.78532203 54547
0 SJ-9A
1 38860U 12056A   13291.46125031  .00000808  00000-0  11736-3 0  1536
2 38860 097.9587 006.3209 0023385 226.3616 133.5666 14.78533150 54588
0 SJ-9A
1 38860U 12056A   13291.79962911  .00000838  00000-0  12137-3 0  1548
2 38860 097.9588 006.6554 0023388 225.3024 134.6289 14.78533979 54638
0 SJ-9A
1 38860U 12056A   13292.20568353  .00000869  00000-0  12560-3 0  1552
2 38860 097.9589 007.0570 0023446 223.9034 136.0341 14.78535037 54690
0 SJ-9A
1 38860U 12056A   13292.47638606  .00000878  00000-0  12689-3 0  1563
2 38860 097.9589 007.3246 0023442 222.8962 137.0423 14.78535605 54735
0 SJ-9A
1 38860U 12056A   13292.81476451  .00000895  00000-0  12916-3 0  1572
2 38860 097.9588 007.6590 0023479 221.7199 138.2227 14.78536366 54784
0 SJ-9A
1 38860U 12056A   13293.15314280  .00000928  00000-0  13373-3 0  1587
2 38860 097.9590 007.9937 0023531 220.6673 139.2820 14.78537383 54835
0 SJ-9A
1 38860U 12056A   13293.49151972  .00000986  00000-0  14159-3 0  1599
2 38860 097.9592 008.3285 0023535 219.5352 140.4177 14.78538738 54882
0 SJ-9A
1 38860U 12056A   13293.82989666  .00001116  00000-0  15922-3 0  1602
2 38860 097.9593 008.6629 0023493 217.8845 142.0780 14.78540709 54934
0 SJ-9A
1 38860U 12056A   13294.16827139  .00001274  00000-0  18071-3 0  1610
2 38860 097.9589 008.9971 0023599 217.1208 142.8459 14.78543278 54985
0 SJ-9A
1 38860U 12056A   13294.50664622  .00001361  00000-0  19260-3 0  1623
2 38860 097.9591 009.3323 0023638 215.5207 144.4486 14.78545088 55035
0 SJ-9A
1 38860U 12056A   13294.84502125  .00001461  00000-0  20616-3 0  1638
2 38860 097.9594 009.6674 0023652 214.1222 145.8515 14.78546996 55080
0 SJ-9A
1 38860U 12056A   13295.18339472  .00001619  00000-0  22768-3 0  1645
2 38860 097.9588 010.0016 0023664 213.2845 146.6934 14.78549764 55139
0 SJ-9A
1 38860U 12056A   13295.45409330  .00001688  00000-0  23704-3 0  1654
2 38860 097.9587 010.2694 0023629 212.5212 147.4560 14.78551387 55175
0 SJ-9A
1 38860U 12056A   13295.79246712  .00001837  00000-0  25737-3 0  1669
2 38860 097.9590 010.6044 0023560 210.9195 149.0654 14.78553917 55227
0 SJ-9A
1 38860U 12056A   13296.19851502  .00001948  00000-0  27242-3 0  1670
2 38860 097.9588 011.0059 0023791 209.5231 150.4676 14.78556485 55285
